[{"OBJECT_NAME":"LYNK TOWER 6","OBJECT_ID":"2024-043AB","EPOCH":"2026-03-09T21:28:38.303328","MEAN_MOTION":15.29548678,"ECCENTRICITY":0.00097492,"INCLINATION":97.5426,"RA_OF_ASC_NODE":204.1954,"ARG_OF_PERICENTER":232.0253,"MEAN_ANOMALY":128.0107,"EPHEMERIS_TYPE":0,"CLASSIFICATION_TYPE":"U","NORAD_CAT_ID":59123,"ELEMENT_SET_NO":999,"REV_AT_EPOCH":11184,"BSTAR":0.00040142146,"MEAN_MOTION_DOT":0.0001144,"MEAN_MOTION_DDOT":0},{"OBJECT_NAME":"STARLINK-33767","OBJECT_ID":"2025-087AB","EPOCH":"2026-03-09T16:55:00.532128","MEAN_MOTION":15.30203063,"ECCENTRICITY":0.00010588,"INCLINATION":53.1572,"RA_OF_ASC_NODE":219.3615,"ARG_OF_PERICENTER":56.8658,"MEAN_ANOMALY":303.2444,"EPHEMERIS_TYPE":0,"CLASSIFICATION_TYPE":"U","NORAD_CAT_ID":63722,"ELEMENT_SET_NO":999,"REV_AT_EPOCH":4920,"BSTAR":0.0010540141,"MEAN_MOTION_DOT":0.00030991,"MEAN_MOTION_DDOT":0}]
